NORAD_CAT_ID,OBJECT_NAME,OBJECT_TYPE,EPOCH,MEAN_MOTION,ECCENTRICITY,INCLINATION,RA_OF_ASC_NODE,ARG_OF_PERICENTER,MEAN_ANOMALY,BSTAR,MEAN_MOTION_DOT,MEAN_MOTION_DDOT,TLE_LINE0,TLE_LINE1,TLE_LINE2,SEMIMAJOR_AXIS,PERIOD,APOGEE,PERIGEE,DECAYED
52541.0,STARLINK-3845,PAYLOAD,2024-08-20 04:01:11,15.0887369,0.000137,53.2161,157.3395,100.3436,259.7711,0.00199,0.00031554,0.0,0 STARLINK-3845,1 52541U 22051J   24233.16749184  .00031554  00000-0  19900-2 0  9990,2 52541  53.2161 157.3395 0001370 100.3436 259.7711 15.08873690125915,6917.777,95.435,540.59,538.695,0.0
52541.0,STARLINK-3845,PAYLOAD,2024-08-20 18:19:39,15.08872467,0.0001896,53.2152,154.6627,86.9174,273.2036,0.0012892,0.00020308,0.0,0 STARLINK-3845,1 52541U 22051J   24233.76364791  .00020308  00000-0  12892-2 0  9991,2 52541  53.2152 154.6627 0001896  86.9174 273.2036 15.08872467126007,6917.781,95.436,540.958,538.335,0.0
52541.0,STARLINK-3845,PAYLOAD,2024-08-21 03:51:58,15.08834927,0.0001286,53.2157,152.8785,80.0873,280.0264,0.0016921,0.00026741,0.0,0 STARLINK-3845,1 52541U 22051J   24234.16109198  .00026741  00000-0  16921-2 0  9998,2 52541  53.2157 152.8785 0001286  80.0873 280.0264 15.08834927126065,6917.896,95.438,540.651,538.871,0.0
52541.0,STARLINK-3845,PAYLOAD,2024-08-21 22:56:36,15.08845143,0.0002072,53.2151,149.3094,139.4373,220.6774,0.001684,0.00026619,0.0,0 STARLINK-3845,1 52541U 22051J   24234.95597683  .00026619  00000-0  16840-2 0  9999,2 52541  53.2151 149.3094 0002072 139.4373 220.6774 15.08845143126182,6917.865,95.437,541.163,538.296,0.0
